NORAD_CAT_ID,OBJECT_NAME,OBJECT_TYPE,EPOCH,MEAN_MOTION,ECCENTRICITY,INCLINATION,RA_OF_ASC_NODE,ARG_OF_PERICENTER,MEAN_ANOMALY,BSTAR,MEAN_MOTION_DOT,MEAN_MOTION_DDOT,TLE_LINE0,TLE_LINE1,TLE_LINE2,SEMIMAJOR_AXIS,PERIOD,APOGEE,PERIGEE,DECAYED
53529.0,STARLINK-4478,PAYLOAD,2023-01-09 06:43:45,15.08867043,0.0001306,53.215,220.9489,74.3296,285.784,0.001125,0.00017675,0.0,0 STARLINK-4478,1 53529U 22101C   23009.28039298  .00017675  00000-0  11250-2 0  9992,2 53529  53.2150 220.9489 0001306  74.3296 285.7840 15.08867043 21736,6917.798000000002,95.436,540.566,538.759,0.0
53529.0,STARLINK-4478,PAYLOAD,2023-01-10 06:34:31,15.08866315,0.0001551999999999,53.2144,216.4886,81.4576,278.6592,0.0005085,7.82e-05,0.0,0 STARLINK-4478,1 53529U 22101C   23010.27397725  .00007820  00000-0  50850-3 0  9996,2 53529  53.2144 216.4886 0001552  81.4576 278.6592 15.08866315 21885,6917.8,95.436,540.739,538.591,0.0
53529.0,STARLINK-4478,PAYLOAD,2023-01-10 16:06:50,15.08847248,0.0001812,53.2146,214.7031,80.8732,279.2465,0.00039488,6.003e-05,0.0,0 STARLINK-4478,1 53529U 22101C   23010.67142040  .00006003  00000-0  39488-3 0  9994,2 53529  53.2146 214.7031 0001812  80.8732 279.2465 15.08847248 21943,6917.858,95.437,540.977,538.47,0.0
53529.0,STARLINK-4478,PAYLOAD,2023-01-11 12:46:51,15.08849547,0.0003207,53.2102,210.8382,82.24600000000002,277.8896,0.00036428,5.516e-05,0.0,0 STARLINK-4478,1 53529U 22101C   23011.53254213  .00005516  00000-0  36428-3 0  9995,2 53529  53.2102 210.8382 0003207  82.2460 277.8896 15.08849547 22076,6917.851,95.437,541.935,537.498,0.0
53529.0,STARLINK-4478,PAYLOAD,2023-01-11 15:57:37,15.08840216,0.0001841,53.2151,210.2421,79.6209,280.499,9.4536e-05,1.217e-05,0.0,0 STARLINK-4478,1 53529U 22101C   23011.66502225  .00001217  00000-0  94536-4 0  9997,2 53529  53.2151 210.2421 0001841  79.6209 280.4990 15.08840216 22092,6917.88,95.438,541.018,538.471,0.0
53529.0,STARLINK-4478,PAYLOAD,2023-01-12 18:59:11,15.08842661,0.0001669,53.2158,205.1874,84.7609,275.3574,0.00013314,1.832e-05,0.0,0 STARLINK-4478,1 53529U 22101C   23012.79110242  .00001832  00000-0  13314-3 0  9993,2 53529  53.2158 205.1874 0001669  84.7609 275.3574 15.08842661 22269,6917.871999999999,95.437,540.8919999999998,538.5830000000002,0.0
53529.0,STARLINK-4478,PAYLOAD,2023-01-12 22:09:57,15.0884545,0.0001756,53.2157,204.5919,87.7512,272.3681,0.00019311,2.787e-05,0.0,0 STARLINK-4478,1 53529U 22101C   23012.92358159  .00002787  00000-0  19311-3 0  9992,2 53529  53.2157 204.5919 0001756  87.7512 272.3681 15.08845450 22281,6917.864000000001,95.437,540.944,538.514,0.0
53529.0,STARLINK-4478,PAYLOAD,2023-01-13 12:28:25,15.08842954,0.0001781,53.2155,201.9158,87.7534,272.3662,0.00016238,2.297e-05,0.0,0 STARLINK-4478,1 53529U 22101C   23013.51974256  .00002297  00000-0  16238-3 0  9991,2 53529  53.2155 201.9158 0001781  87.7534 272.3662 15.08842954 22372,6917.871,95.437,540.9680000000001,538.504,0.0
53529.0,STARLINK-4478,PAYLOAD,2023-01-13 22:00:44,15.08848284,0.0001766999999999,53.2156,200.1314,89.2303,270.8891,0.0002119,3.087e-05,0.0,0 STARLINK-4478,1 53529U 22101C   23013.91717947  .00003087  00000-0  21190-3 0  9998,2 53529  53.2156 200.1314 0001767  89.2303 270.8891 15.08848284 22439,6917.855,95.437,540.942,538.498,0.0
53529.0,STARLINK-4478,PAYLOAD,2023-01-14 10:43:49,15.08836569,0.0001778,53.2154,197.7522,90.2441,269.8754,-1.6195e-05,-5.46e-06,0.0,0 STARLINK-4478,1 53529U 22101C   23014.44710437 -.00000546  00000-0 -16195-4 0  9993,2 53529  53.2154 197.7522 0001778  90.2441 269.8754 15.08836569 22514,6917.891,95.438,540.986,538.526,0.0
53529.0,STARLINK-4478,PAYLOAD,2023-01-15 12:09:59,15.08841261,0.0001672,53.2166,192.9951,93.0309,267.0875,1.3043e-05,-8e-07,0.0,0 STARLINK-4478,1 53529U 22101C   23015.50694211 -.00000080  00000-0  13043-4 0  9993,2 53529  53.2166 192.9951 0001672  93.0309 267.0875 15.08841261 22673,6917.877,95.437,540.898,538.585,0.0
53529.0,STARLINK-4478,PAYLOAD,2023-01-15 20:06:54,15.08849499,0.0001644,53.2171,191.5083,90.7177,269.4004,8.7185e-05,1.1e-05,0.0,0 STARLINK-4478,1 53529U 22101C   23015.83813548  .00001100  00000-0  87185-4 0  9996,2 53529  53.2171 191.5083 0001644  90.7177 269.4004 15.08849499 22723,6917.851,95.437,540.854,538.5790000000001,0.0
53529.0,STARLINK-4478,PAYLOAD,2023-01-16 12:00:47,15.0883257,0.0001701,53.2169,188.5348,98.1458,261.9727,6.570899999999999e-05,7.58e-06,0.0,0 STARLINK-4478,1 53529U 22101C   23016.50054721  .00000758  00000-0  65709-4 0  9997,2 53529  53.2169 188.5348 0001701  98.1458 261.9727 15.08832570 22820,6917.903,95.438,540.945,538.591,0.0
53529.0,STARLINK-4478,PAYLOAD,2023-01-16 18:22:19,15.08837306,0.0001629999999999,53.217,187.3457,97.0143,263.1034,0.00010236,1.341e-05,0.0,0 STARLINK-4478,1 53529U 22101C   23016.76550454  .00001341  00000-0  10236-3 0  9992,2 53529  53.2170 187.3457 0001630  97.0143 263.1034 15.08837306 22861,6917.889,95.438,540.881,538.626,0.0
53529.0,STARLINK-4478,PAYLOAD,2023-01-17 10:16:11,15.08835575,0.0001585,53.2172,184.3728,95.8221,264.2952,3.4271e-05,2.57e-06,0.0,0 STARLINK-4478,1 53529U 22101C   23017.42790927  .00000257  00000-0  34271-4 0  9998,2 53529  53.2172 184.3728 0001585  95.8221 264.2952 15.08835575 22961,6917.894,95.438,540.855,538.6619999999999,0.0
53529.0,STARLINK-4478,PAYLOAD,2023-01-17 18:13:07,15.08836495,0.0001585999999999,53.2173,182.886,95.9576,264.1597,3.7672e-05,3.12e-06,0.0,0 STARLINK-4478,1 53529U 22101C   23017.75910954  .00000312  00000-0  37672-4 0  9998,2 53529  53.2173 182.8860 0001586  95.9576 264.1597 15.08836495 23010,6917.891,95.438,540.8530000000001,538.659,0.0
53529.0,STARLINK-4478,PAYLOAD,2023-01-18 03:45:26,15.08829204,0.0001615,53.2172,181.1019,97.8755,262.242,0.00019118,2.755e-05,0.0,0 STARLINK-4478,1 53529U 22101C   23018.15655254  .00002755  00000-0  19118-3 0  9999,2 53529  53.2172 181.1019 0001615  97.8755 262.2420 15.08829204 23070,6917.9130000000005,95.438,540.896,538.661,0.0
53529.0,STARLINK-4478,PAYLOAD,2023-01-18 18:03:53,15.08841073,0.0001563,53.2175,178.4256,92.0805,268.0366,0.00012437,1.692e-05,0.0,0 STARLINK-4478,1 53529U 22101C   23018.75270710  .00001692  00000-0  12437-3 0  9991,2 53529  53.2175 178.4256 0001563  92.0805 268.0366 15.08841073 23161,6917.877,95.437,540.823,538.661,0.0
53529.0,STARLINK-4478,PAYLOAD,2023-01-19 09:57:45,15.08836338,0.0001533,53.2166,175.4516,84.3645,275.7522,9.0763e-05,1.157e-05,0.0,0 STARLINK-4478,1 53529U 22101C   23019.41511287  .00001157  00000-0  90763-4 0  9997,2 53529  53.2166 175.4516 0001533  84.3645 275.7522 15.08836338 23268,6917.892,95.438,540.817,538.696,0.0
53529.0,STARLINK-4478,PAYLOAD,2023-01-20 03:27:00,15.08839359,0.0001409,53.2186,172.1803,88.1464,271.969,8.6965e-05,1.096e-05,0.0,0 STARLINK-4478,1 53529U 22101C   23020.14375243  .00001096  00000-0  86965-4 0  9990,2 53529  53.2186 172.1803 0001409  88.1464 271.9690 15.08839359 23378,6917.882,95.438,540.722,538.773,0.0
53529.0,STARLINK-4478,PAYLOAD,2023-01-20 16:10:05,15.08840231,0.0001451,53.2185,169.8009,90.0032,270.1127,5.864e-05,6.45e-06,0.0,0 STARLINK-4478,1 53529U 22101C   23020.67367313  .00000645  00000-0  58640-4 0  9995,2 53529  53.2185 169.8009 0001451  90.0032 270.1127 15.08840231 23454,6917.88,95.438,540.748,538.741,0.0
53529.0,STARLINK-4478,PAYLOAD,2023-01-21 16:00:51,15.08851287,0.0001406999999999,53.2189,165.3419,84.0233,276.0919,0.00011373,1.523e-05,0.0,0 STARLINK-4478,1 53529U 22101C   23021.66726394  .00001523  00000-0  11373-3 0  9990,2 53529  53.2189 165.3419 0001407  84.0233 276.0919 15.08851287 23605,6917.846,95.437,540.684,538.738,0.0
53529.0,STARLINK-4478,PAYLOAD,2023-01-22 09:30:06,15.08839788,0.0001317,53.2178,162.0713,90.3307,269.7836,8.7369e-05,1.103e-05,0.0,0 STARLINK-4478,1 53529U 22101C   23022.39591041  .00001103  00000-0  87369-4 0  9993,2 53529  53.2178 162.0713 0001317  90.3307 269.7836 15.08839788 23717,6917.880999999999,95.438,540.6569999999999,538.835,0.0
53529.0,STARLINK-4478,PAYLOAD,2023-01-23 09:20:53,15.0883476,0.0001433,53.2184,157.6077,114.4448,245.6694,2.8899e-05,1.72e-06,0.0,0 STARLINK-4478,1 53529U 22101C   23023.38951354  .00000172  00000-0  28899-4 0  9998,2 53529  53.2184 157.6077 0001433 114.4448 245.6694 15.08834760 23866,6917.896,95.438,540.753,538.77,0.0
53529.0,STARLINK-4478,PAYLOAD,2023-01-23 17:17:49,15.0884305,0.0001328,53.2185,156.1223,95.0957,265.0187,-4.0593e-06,-3.53e-06,0.0,0 STARLINK-4478,1 53529U 22101C   23023.72070949 -.00000353  00000-0 -40593-5 0  9997,2 53529  53.2185 156.1223 0001328  95.0957 265.0187 15.08843050 23917,6917.871,95.437,540.655,538.817,0.0
53529.0,STARLINK-4478,PAYLOAD,2023-01-25 12:13:14,15.08833531,0.0001419,53.2166,148.0952,113.7014,246.4127,1.8346e-05,4e-08,0.0,0 STARLINK-4478,1 53529U 22101C   23025.50919911  .00000004  00000-0  18346-4 0  9997,2 53529  53.2166 148.0952 0001419 113.7014 246.4127 15.08833531 24188,6917.9,95.438,540.747,538.784,0.0
53529.0,STARLINK-4478,PAYLOAD,2023-01-25 13:48:37,15.08835958,9.57e-05,53.2183,147.797,105.2925,254.8172,1.4086e-05,-6.4e-07,0.0,0 STARLINK-4478,1 53529U 22101C   23025.57543818 -.00000064  00000-0  14086-4 0  9997,2 53529  53.2183 147.7970 0000957 105.2925 254.8172 15.08835958 24195,6917.893,95.438,540.42,539.096,0.0
53529.0,STARLINK-4478,PAYLOAD,2023-01-25 15:24:00,15.08838027,0.0001245,53.2176,147.5007,105.1917,254.9213,6.4975e-05,7.46e-06,0.0,0 STARLINK-4478,1 53529U 22101C   23025.64167614  .00000746  00000-0  64975-4 0  9999,2 53529  53.2176 147.5007 0001245 105.1917 254.9213 15.08838027 24206,6917.886,95.438,540.613,538.89,0.0
53529.0,STARLINK-4478,PAYLOAD,2023-01-26 00:56:19,15.08841505,0.0001288,53.2188,145.7163,93.194,266.92,9.9052e-05,1.289e-05,0.0,0 STARLINK-4478,1 53529U 22101C   23026.03911456  .00001289  00000-0  99052-4 0  9991,2 53529  53.2188 145.7163 0001288  93.1940 266.9200 15.08841505 24261,6917.876,95.437,540.632,538.85,0.0
